GLOBAL-2                
1 43812U 18099BG  26200.10812307  .00001785  00000+0  11717-3 0  9997
2 43812  97.3547 235.2945 0007151  56.4637 303.7274 15.08839207416729
GLOBAL-4                
1 44499U 19054E   26199.78247011  .00039633  00000+0  35966-3 0  9991
2 44499  45.0056  53.6787 0005928 219.3238 140.7230 15.67366282385313
GLOBAL-9                
1 47971U 21023G   26199.69647833  .00011382  00000+0  22177-3 0  9995
2 47971  44.9812  73.2676 0003900 192.5158 167.5637 15.47700222299827
GLOBAL-14               
1 49469U 21106A   26199.76121180  .00014858  00000+0  24419-3 0  9993
2 49469  42.0036 103.2309 0018251 247.4363 112.4550 15.51942274263035
GLOBAL-12               
1 49772U 21115BA  26200.15368628  .00017441  00000+0  25754-3 0  9990
2 49772  53.1934 250.6061 0002985  75.7457 284.3887 15.55474140260874
GLOBAL-13               
1 49773U 21115BB  26200.17068559  .00010578  00000+0  21287-3 0  9994
2 49773  53.1961 262.4065 0000216 137.2668 222.8357 15.47202082260710
GLOBAL-17               
1 49949U 21120A   26200.24170428  .00014155  00000+0  21816-3 0  9995
2 49949  41.9931 218.0446 0013586 122.5308 237.6851 15.53842059259889
GLOBAL-16               
1 49950U 21120B   26200.23563611  .00012195  00000+0  20479-3 0  9992
2 49950  41.9933 222.4351 0011538 112.3006 247.9062 15.51592418259825
GLOBAL-18               
1 52196U 22034B   26200.10825291  .00013531  00000+0  26858-3 0  9996
2 52196  52.9812 103.9534 0004639  35.1635 324.9676 15.47332521241908
GLOBAL-19               
1 55982U 23041B   26199.84536581  .00008144  00000+0  21431-3 0  9996
2 55982  42.0023  17.1682 0010080 240.9036 119.0795 15.38742313186802
GLOBAL-5                
1 55983U 23041C   26199.87800649  .00008152  00000+0  21447-3 0  9995
2 55983  42.0019  16.5030 0009055 236.7404 123.2568 15.38757541186815
