{"fetched_at":"2026-07-19T17:31:32.912Z","source":"https://celestrak.org/NORAD/elements/gp.php?NAME=GLOBAL&FORMAT=JSON","constellation":"blacksky-gen2","records":[{"OBJECT_NAME":"GLOBAL-2","OBJECT_ID":"2018-099BG","EPOCH":"2026-07-19T02:35:41.833248","CLASSIFICATION_TYPE":"U","MEAN_MOTION":15.08839207,"ECCENTRICITY":0.00071511,"INCLINATION":97.3547,"RA_OF_ASC_NODE":235.2945,"ARG_OF_PERICENTER":56.4637,"MEAN_ANOMALY":303.7274,"EPHEMERIS_TYPE":0,"NORAD_CAT_ID":43812,"ELEMENT_SET_NO":999,"REV_AT_EPOCH":41672,"BSTAR":0.00011717276,"MEAN_MOTION_DOT":0.00001785,"MEAN_MOTION_DDOT":0},{"OBJECT_NAME":"GLOBAL-4","OBJECT_ID":"2019-054E","EPOCH":"2026-07-18T18:46:45.417504","CLASSIFICATION_TYPE":"U","MEAN_MOTION":15.67366282,"ECCENTRICITY":0.0005928,"INCLINATION":45.0056,"RA_OF_ASC_NODE":53.6787,"ARG_OF_PERICENTER":219.3238,"MEAN_ANOMALY":140.723,"EPHEMERIS_TYPE":0,"NORAD_CAT_ID":44499,"ELEMENT_SET_NO":999,"REV_AT_EPOCH":38531,"BSTAR":0.00035966335,"MEAN_MOTION_DOT":0.00039633,"MEAN_MOTION_DDOT":0},{"OBJECT_NAME":"GLOBAL-9","OBJECT_ID":"2021-023G","EPOCH":"2026-07-18T16:42:55.727712","CLASSIFICATION_TYPE":"U","MEAN_MOTION":15.47700222,"ECCENTRICITY":0.00039005,"INCLINATION":44.9812,"RA_OF_ASC_NODE":73.2676,"ARG_OF_PERICENTER":192.5158,"MEAN_ANOMALY":167.5637,"EPHEMERIS_TYPE":0,"NORAD_CAT_ID":47971,"ELEMENT_SET_NO":999,"REV_AT_EPOCH":29982,"BSTAR":0.00022177476,"MEAN_MOTION_DOT":0.00011382,"MEAN_MOTION_DDOT":0},{"OBJECT_NAME":"GLOBAL-14","OBJECT_ID":"2021-106A","EPOCH":"2026-07-18T18:16:08.699520","CLASSIFICATION_TYPE":"U","MEAN_MOTION":15.51942274,"ECCENTRICITY":0.00182515,"INCLINATION":42.0036,"RA_OF_ASC_NODE":103.2309,"ARG_OF_PERICENTER":247.4363,"MEAN_ANOMALY":112.455,"EPHEMERIS_TYPE":0,"NORAD_CAT_ID":49469,"ELEMENT_SET_NO":999,"REV_AT_EPOCH":26303,"BSTAR":0.00024419325,"MEAN_MOTION_DOT":0.00014858,"MEAN_MOTION_DDOT":0},{"OBJECT_NAME":"GLOBAL-12","OBJECT_ID":"2021-115BA","EPOCH":"2026-07-19T03:41:18.494592","CLASSIFICATION_TYPE":"U","MEAN_MOTION":15.5547414,"ECCENTRICITY":0.00029853,"INCLINATION":53.1934,"RA_OF_ASC_NODE":250.6061,"ARG_OF_PERICENTER":75.7457,"MEAN_ANOMALY":284.3887,"EPHEMERIS_TYPE":0,"NORAD_CAT_ID":49772,"ELEMENT_SET_NO":999,"REV_AT_EPOCH":26087,"BSTAR":0.0002575405,"MEAN_MOTION_DOT":0.00017441,"MEAN_MOTION_DDOT":0},{"OBJECT_NAME":"GLOBAL-13","OBJECT_ID":"2021-115BB","EPOCH":"2026-07-19T04:05:47.234976","CLASSIFICATION_TYPE":"U","MEAN_MOTION":15.47202082,"ECCENTRICITY":0.00002166,"INCLINATION":53.1961,"RA_OF_ASC_NODE":262.4065,"ARG_OF_PERICENTER":137.2668,"MEAN_ANOMALY":222.8357,"EPHEMERIS_TYPE":0,"NORAD_CAT_ID":49773,"ELEMENT_SET_NO":999,"REV_AT_EPOCH":26071,"BSTAR":0.00021287494,"MEAN_MOTION_DOT":0.00010578,"MEAN_MOTION_DDOT":0},{"OBJECT_NAME":"GLOBAL-17","OBJECT_ID":"2021-120A","EPOCH":"2026-07-19T05:48:03.249792","CLASSIFICATION_TYPE":"U","MEAN_MOTION":15.53842059,"ECCENTRICITY":0.00135869,"INCLINATION":41.9931,"RA_OF_ASC_NODE":218.0446,"ARG_OF_PERICENTER":122.5308,"MEAN_ANOMALY":237.6851,"EPHEMERIS_TYPE":0,"NORAD_CAT_ID":49949,"ELEMENT_SET_NO":999,"REV_AT_EPOCH":25988,"BSTAR":0.00021816055,"MEAN_MOTION_DOT":0.00014155,"MEAN_MOTION_DDOT":0},{"OBJECT_NAME":"GLOBAL-16","OBJECT_ID":"2021-120B","EPOCH":"2026-07-19T05:39:18.959904","CLASSIFICATION_TYPE":"U","MEAN_MOTION":15.51592418,"ECCENTRICITY":0.0011538,"INCLINATION":41.9933,"RA_OF_ASC_NODE":222.4351,"ARG_OF_PERICENTER":112.3006,"MEAN_ANOMALY":247.9062,"EPHEMERIS_TYPE":0,"NORAD_CAT_ID":49950,"ELEMENT_SET_NO":999,"REV_AT_EPOCH":25982,"BSTAR":0.00020479342,"MEAN_MOTION_DOT":0.00012195,"MEAN_MOTION_DDOT":0},{"OBJECT_NAME":"GLOBAL-18","OBJECT_ID":"2022-034B","EPOCH":"2026-07-19T02:35:53.051424","CLASSIFICATION_TYPE":"U","MEAN_MOTION":15.47332521,"ECCENTRICITY":0.00046399,"INCLINATION":52.9812,"RA_OF_ASC_NODE":103.9534,"ARG_OF_PERICENTER":35.1635,"MEAN_ANOMALY":324.9676,"EPHEMERIS_TYPE":0,"NORAD_CAT_ID":52196,"ELEMENT_SET_NO":999,"REV_AT_EPOCH":24190,"BSTAR":0.0002685832,"MEAN_MOTION_DOT":0.00013531,"MEAN_MOTION_DDOT":0},{"OBJECT_NAME":"GLOBAL-19","OBJECT_ID":"2023-041B","EPOCH":"2026-07-18T20:17:19.605984","CLASSIFICATION_TYPE":"U","MEAN_MOTION":15.38742313,"ECCENTRICITY":0.00100808,"INCLINATION":42.0023,"RA_OF_ASC_NODE":17.1682,"ARG_OF_PERICENTER":240.9036,"MEAN_ANOMALY":119.0795,"EPHEMERIS_TYPE":0,"NORAD_CAT_ID":55982,"ELEMENT_SET_NO":999,"REV_AT_EPOCH":18680,"BSTAR":0.00021430548,"MEAN_MOTION_DOT":0.00008144,"MEAN_MOTION_DDOT":0},{"OBJECT_NAME":"GLOBAL-5","OBJECT_ID":"2023-041C","EPOCH":"2026-07-18T21:04:19.760736","CLASSIFICATION_TYPE":"U","MEAN_MOTION":15.38757541,"ECCENTRICITY":0.00090558,"INCLINATION":42.0019,"RA_OF_ASC_NODE":16.503,"ARG_OF_PERICENTER":236.7404,"MEAN_ANOMALY":123.2568,"EPHEMERIS_TYPE":0,"NORAD_CAT_ID":55983,"ELEMENT_SET_NO":999,"REV_AT_EPOCH":18681,"BSTAR":0.00021446781,"MEAN_MOTION_DOT":0.00008152,"MEAN_MOTION_DDOT":0}]}
